ONEWEB-0578             
1 56067U 23043X   24174.61323960  .00000148  00000+0  32671-3 0  9998
2 56067  87.9282  28.2121 0001715  85.8869 274.2461 13.21827664 62516
ONEWEB-0579             
1 56068U 23043Y   24174.60377857  .00000081  00000+0  16500-3 0  9991
2 56068  87.9280  28.2115 0002291  85.0278 275.1117 13.21827690 62522
ONEWEB-0581             
1 56069U 23043Z   24174.59525453  .00000004  00000+0 -22473-4 0  9990
2 56069  87.9097  13.0493 0002180 101.2779 258.8597 13.16595285 63611
ONEWEB-0609             
1 56070U 23043AA  24174.58558936 -.00000106  00000+0 -31638-3 0  9999
2 56070  87.9035  43.4153 0001871  79.0151 281.1189 13.15549350 62073
ONEWEB-0613             
1 56071U 23043AB  24174.58083050 -.00000057  00000+0 -18602-3 0  9991
2 56071  87.9040  43.4126 0002172  78.8563 281.2811 13.15546910 61160
ONEWEB-0630             
1 56072U 23043AC  24174.57607534 -.00000027  00000+0 -10622-3 0  9991
2 56072  87.9036  43.4043 0002162  75.2092 284.9278 13.15550981 61150
ONEWEB-0632             
1 56073U 23043AD  24174.64738300  .00000017  00000+0  11470-4 0  9996
2 56073  87.9035  43.4090 0002080  90.4950 269.6419 13.15546521 62077
ONEWEB-0633             
1 56074U 23043AE  24174.56498804  .00000105  00000+0  24516-3 0  9992
2 56074  87.9033  43.4069 0002221  69.6361 290.5008 13.15549833 61135
